start=new Date('2022-02-13T00:00:00.000Z').valueOf();
sats=[{"OBJECT_TYPE":"PAYLOAD","COUNTRY_CODE":"US","MEAN_ELEMENT_THEORY":"SGP4","RA_OF_ASC_NODE":"148.0456","NORAD_CAT_ID":"46119","DECAY_DATE":null,"MEAN_MOTION_DOT":"0.00000086","GP_ID":"195818822","RCS_SIZE":"LARGE","MEAN_MOTION_DDOT":"0.0000000000000","BSTAR":"0.00002463700000","OBJECT_ID":"2020-057C","MEAN_MOTION":"15.06415938","ELEMENT_SET_NO":"999","PERIOD":"95.591","INCLINATION":"53.0538","SITE":"AFETR","REV_AT_EPOCH":"8333","SEMIMAJOR_AXIS":"6925.300","TLE_LINE2":"2 46119  53.0538 148.0456 0001503  74.1927 285.9228 15.06415938 83339","MEAN_ANOMALY":"285.9228","CENTER_NAME":"EARTH","LAUNCH_DATE":"2020-08-18","REF_FRAME":"TEME","TIME_SYSTEM":"UTC","EPHEMERIS_TYPE":"0","PERIAPSIS":"546.124","TLE_LINE1":"1 46119U 20057C   22043.57750949  .00000086  00000-0  24637-4 0  9992","EPOCH":"2022-02-12T13:51:36.819936","ECCENTRICITY":"0.00015030","ARG_OF_PERICENTER":"74.1927","OBJECT_NAME":"STARLINK-1593","APOAPSIS":"548.206","FILE":"3298493","CLASSIFICATION_TYPE":"U"},{"ECCENTRICITY":"0.00013660","EPHEMERIS_TYPE":"0","PERIAPSIS":"546.261","TLE_LINE1":"1 46120U 20057D   22043.76180976 -.00002682  00000-0 -16124-3 0  9999","EPOCH":"2022-02-12T18:17:00.363264","CLASSIFICATION_TYPE":"U","FILE":"3298634","OBJECT_NAME":"STARLINK-1601","ARG_OF_PERICENTER":"71.2864","APOAPSIS":"548.153","INCLINATION":"53.0533","SITE":"AFETR","REV_AT_EPOCH":"8276","MEAN_MOTION":"15.06402001","ELEMENT_SET_NO":"999","PERIOD":"95.592","TIME_SYSTEM":"UTC","TLE_LINE2":"2 46120  53.0533 147.2097 0001366  71.2864 288.8274 15.06402001 82769","SEMIMAJOR_AXIS":"6925.342","CENTER_NAME":"EARTH","MEAN_ANOMALY":"288.8274","REF_FRAME":"TEME","LAUNCH_DATE":"2020-08-18","MEAN_MOTION_DDOT":"0.0000000000000","OBJECT_ID":"2020-057D","BSTAR":"-0.00016124000000","RA_OF_ASC_NODE":"147.2097","OBJECT_TYPE":"PAYLOAD","COUNTRY_CODE":"US","MEAN_ELEMENT_THEORY":"SGP4","MEAN_MOTION_DOT":"-0.00002682","RCS_SIZE":"LARGE","GP_ID":"195826083","NORAD_CAT_ID":"46120","DECAY_DATE":null},{"MEAN_ELEMENT_THEORY":"SGP4","COUNTRY_CODE":"US","OBJECT_TYPE":"PAYLOAD","RA_OF_ASC_NODE":"127.3545","DECAY_DATE":null,"NORAD_CAT_ID":"46121","GP_ID":"195825863","RCS_SIZE":"LARGE","MEAN_MOTION_DOT":"-0.00002791","MEAN_MOTION_DDOT":"0.0000000000000","BSTAR":"-0.00016852000000","OBJECT_ID":"2020-057E","PERIOD":"95.592","ELEMENT_SET_NO":"999","MEAN_MOTION":"15.06404245","REV_AT_EPOCH":"8303","INCLINATION":"53.0536","SITE":"AFETR","LAUNCH_DATE":"2020-08-18","REF_FRAME":"TEME","CENTER_NAME":"EARTH","TLE_LINE2":"2 46121  53.0536 127.3545 0001397  68.2469 291.8668 15.06404245 83035","SEMIMAJOR_AXIS":"6925.336","MEAN_ANOMALY":"291.8668","TIME_SYSTEM":"UTC","EPOCH":"2022-02-12T17:31:53.618016","TLE_LINE1":"1 46121U 20057E   22043.73048169 -.00002791  00000-0 -16852-3 0  9993","EPHEMERIS_TYPE":"0","PERIAPSIS":"546.233","ECCENTRICITY":"0.00013970","APOAPSIS":"548.168","OBJECT_NAME":"STARLINK-1602","ARG_OF_PERICENTER":"68.2469","CLASSIFICATION_TYPE":"U","FILE":"3298634"},{"COUNTRY_CODE":"US","OBJECT_TYPE":"PAYLOAD","MEAN_ELEMENT_THEORY":"SGP4","RA_OF_ASC_NODE":"108.1925","NORAD_CAT_ID":"46122","DECAY_DATE":null,"RCS_SIZE":"LARGE","GP_ID":"195825870","MEAN_MOTION_DOT":"0.00000303","MEAN_MOTION_DDOT":"0.0000000000000","BSTAR":"0.00003927100000","OBJECT_ID":"2020-057F","MEAN_MOTION":"15.06396383","PERIOD":"95.592","ELEMENT_SET_NO":"999","REV_AT_EPOCH":"8329","INCLINATION":"53.0539","SITE":"AFETR","LAUNCH_DATE":"2020-08-18","REF_FRAME":"TEME","TLE_LINE2":"2 46122  53.0539 108.1925 0001496  74.3826 285.7328 15.06396383 83299","SEMIMAJOR_AXIS":"6925.360","CENTER_NAME":"EARTH","MEAN_ANOMALY":"285.7328","TIME_SYSTEM":"UTC","TLE_LINE1":"1 46122U 20057F   22043.54066299  .00000303  00000-0  39271-4 0  9993","EPHEMERIS_TYPE":"0","PERIAPSIS":"546.189","EPOCH":"2022-02-12T12:58:33.282336","ECCENTRICITY":"0.00014960","ARG_OF_PERICENTER":"74.3826","OBJECT_NAME":"STARLINK-1604","APOAPSIS":"548.261","CLASSIFICATION_TYPE":"U","FILE":"3298640"},{"INCLINATION":"53.0539","SITE":"AFETR","REV_AT_EPOCH":"8389","ELEMENT_SET_NO":"999","PERIOD":"95.591","MEAN_MOTION":"15.06412640","TIME_SYSTEM":"UTC","MEAN_ANOMALY":"301.1757","TLE_LINE2":"2 46123  53.0539 108.5655 0001561  58.9385 301.1757 15.06412640 83895","SEMIMAJOR_AXIS":"6925.310","CENTER_NAME":"EARTH","LAUNCH_DATE":"2020-08-18","REF_FRAME":"TEME","ECCENTRICITY":"0.00015610","EPOCH":"2022-02-12T11:01:46.111008","PERIAPSIS":"546.094","EPHEMERIS_TYPE":"0","TLE_LINE1":"1 46123U 20057G   22043.45956147  .00001629  00000-0  12819-3 0  9994","FILE":"3298493","CLASSIFICATION_TYPE":"U","APOAPSIS":"548.256","ARG_OF_PERICENTER":"58.9385","OBJECT_NAME":"STARLINK-1605","RA_OF_ASC_NODE":"108.5655","MEAN_ELEMENT_THEORY":"SGP4","OBJECT_TYPE":"PAYLOAD","COUNTRY_CODE":"US","MEAN_MOTION_DOT":"0.00001629","RCS_SIZE":"LARGE","GP_ID":"195817322","DECAY_DATE":null,"NORAD_CAT_ID":"46123","MEAN_MOTION_DDOT":"0.0000000000000","BSTAR":"0.00012819000000","OBJECT_ID":"2020-057G"},{"SITE":"AFETR","INCLINATION":"53.0544","REV_AT_EPOCH":"8263","ELEMENT_SET_NO":"999","PERIOD":"95.592","MEAN_MOTION":"15.06403508","TIME_SYSTEM":"UTC","TLE_LINE2":"2 46124  53.0544 108.2462 0001297  74.9144 285.1988 15.06403508 82633","MEAN_ANOMALY":"285.1988","SEMIMAJOR_AXIS":"6925.338","CENTER_NAME":"EARTH","LAUNCH_DATE":"2020-08-18","REF_FRAME":"TEME","ECCENTRICITY":"0.00012970","EPOCH":"2022-02-12T12:47:54.267936","EPHEMERIS_TYPE":"0","PERIAPSIS":"546.305","TLE_LINE1":"1 46124U 20057H   22043.53326699 -.00004479  00000-0 -28198-3 0  9992","CLASSIFICATION_TYPE":"U","FILE":"3298493","APOAPSIS":"548.101","OBJECT_NAME":"STARLINK-1614","ARG_OF_PERICENTER":"74.9144","RA_OF_ASC_NODE":"108.2462","MEAN_ELEMENT_THEORY":"SGP4","OBJECT_TYPE":"PAYLOAD","COUNTRY_CODE":"US","MEAN_MOTION_DOT":"-0.00004479","GP_ID":"195819574","RCS_SIZE":"LARGE","DECAY_DATE":null,"NORAD_CAT_ID":"46124","MEAN_MOTION_DDOT":"0.0000000000000","BSTAR":"-0.00028198000000","OBJECT_ID":"2020-057H"},{"EPOCH":"2022-02-12T17:08:00.394080","TLE_LINE1":"1 46125U 20057J   22043.71389345 -.00003497  00000-0 -21592-3 0  9990","EPHEMERIS_TYPE":"0","PERIAPSIS":"546.052","ECCENTRICITY":"0.00016640","APOAPSIS":"548.356","OBJECT_NAME":"STARLINK-1618","ARG_OF_PERICENTER":"77.9190","FILE":"3298642","CLASSIFICATION_TYPE":"U","PERIOD":"95.592","ELEMENT_SET_NO":"999","MEAN_MOTION":"15.06403149","REV_AT_EPOCH":"8275","INCLINATION":"53.0546","SITE":"AFETR","LAUNCH_DATE":"2020-08-18","REF_FRAME":"TEME","TLE_LINE2":"2 46125  53.0546 147.4130 0001664  77.9190 282.1985 15.06403149 82753","SEMIMAJOR_AXIS":"6925.339","CENTER_NAME":"EARTH","MEAN_ANOMALY":"282.1985","TIME_SYSTEM":"UTC","MEAN_MOTION_DDOT":"0.0000000000000","OBJECT_ID":"2020-057J","BSTAR":"-0.00021592000000","MEAN_ELEMENT_THEORY":"SGP4","COUNTRY_CODE":"US","OBJECT_TYPE":"PAYLOAD","RA_OF_ASC_NODE":"147.4130","DECAY_DATE":null,"NORAD_CAT_ID":"46125","RCS_SIZE":"LARGE","GP_ID":"195826144","MEAN_MOTION_DOT":"-0.00003497"},{"MEAN_MOTION_DOT":"-0.00000361","RCS_SIZE":"LARGE","GP_ID":"195825911","NORAD_CAT_ID":"46126","DECAY_DATE":null,"RA_OF_ASC_NODE":"147.8292","OBJECT_TYPE":"PAYLOAD","COUNTRY_CODE":"US","MEAN_ELEMENT_THEORY":"SGP4","OBJECT_ID":"2020-057K","BSTAR":"-0.00000530190000","MEAN_MOTION_DDOT":"0.0000000000000","TIME_SYSTEM":"UTC","CENTER_NAME":"EARTH","TLE_LINE2":"2 46126  53.0603 147.8292 0001574  89.9619 270.1551 15.06404944 82749","SEMIMAJOR_AXIS":"6925.333","MEAN_ANOMALY":"270.1551","REF_FRAME":"TEME","LAUNCH_DATE":"2020-08-18","SITE":"AFETR","INCLINATION":"53.0603","REV_AT_EPOCH":"8274","MEAN_MOTION":"15.06404944","ELEMENT_SET_NO":"999","PERIOD":"95.592","CLASSIFICATION_TYPE":"U","FILE":"3298642","ARG_OF_PERICENTER":"89.9619","OBJECT_NAME":"STARLINK-1619","APOAPSIS":"548.288","ECCENTRICITY":"0.00015740","PERIAPSIS":"546.108","EPHEMERIS_TYPE":"0","TLE_LINE1":"1 46126U 20057K   22043.62174497 -.00000361  00000-0 -53019-5 0  9999","EPOCH":"2022-02-12T14:55:18.765408"},{"BSTAR":"-0.00000142470000","OBJECT_ID":"2020-057L","MEAN_MOTION_DDOT":"0.0000000000000","DECAY_DATE":null,"NORAD_CAT_ID":"46127","GP_ID":"195824426","RCS_SIZE":"LARGE","MEAN_MOTION_DOT":"-0.00000303","MEAN_ELEMENT_THEORY":"SGP4","COUNTRY_CODE":"US","OBJECT_TYPE":"PAYLOAD","RA_OF_ASC_NODE":"128.1750","APOAPSIS":"548.134","OBJECT_NAME":"STARLINK-1621","ARG_OF_PERICENTER":"76.3346","FILE":"3298529","CLASSIFICATION_TYPE":"U","EPOCH":"2022-02-12T13:06:30.472992","TLE_LINE1":"1 46127U 20057L   22043.54618603 -.00000303  00000-0 -14247-5 0  9999","EPHEMERIS_TYPE":"0","PERIAPSIS":"546.258","ECCENTRICITY":"0.00013550","LAUNCH_DATE":"2020-08-18","REF_FRAME":"TEME","TLE_LINE2":"2 46127  53.0530 128.1750 0001355  76.3346 283.7793 15.06405731 83018","CENTER_NAME":"EARTH","SEMIMAJOR_AXIS":"6925.331","MEAN_ANOMALY":"283.7793","TIME_SYSTEM":"UTC","PERIOD":"95.592","ELEMENT_SET_NO":"999","MEAN_MOTION":"15.06405731","REV_AT_EPOCH":"8301","INCLINATION":"53.0530","SITE":"AFETR"},{"FILE":"3298650","CLASSIFICATION_TYPE":"U","ARG_OF_PERICENTER":"65.6388","OBJECT_NAME":"STARLINK-1622","APOAPSIS":"548.224","ECCENTRICITY":"0.00014430","PERIAPSIS":"546.226","EPHEMERIS_TYPE":"0","TLE_LINE1":"1 46128U 20057M   22043.64018450 -.00000107  00000-0  11726-4 0  9994","EPOCH":"2022-02-12T15:21:51.940800","TIME_SYSTEM":"UTC","TLE_LINE2":"2 46128  53.0549 107.7643 0001443  65.6388 294.4752 15.06396300 83305","SEMIMAJOR_AXIS":"6925.360","MEAN_ANOMALY":"294.4752","CENTER_NAME":"EARTH","LAUNCH_DATE":"2020-08-18","REF_FRAME":"TEME","SITE":"AFETR","INCLINATION":"53.0549","REV_AT_EPOCH":"8330","MEAN_MOTION":"15.06396300","ELEMENT_SET_NO":"999","PERIOD":"95.592","BSTAR":"0.00001172600000","OBJECT_ID":"2020-057M","MEAN_MOTION_DDOT":"0.0000000000000","MEAN_MOTION_DOT":"-0.00000107","GP_ID":"195826158","RCS_SIZE":"LARGE","NORAD_CAT_ID":"46128","DECAY_DATE":null,"RA_OF_ASC_NODE":"107.7643","OBJECT_TYPE":"PAYLOAD","COUNTRY_CODE":"US","MEAN_ELEMENT_THEORY":"SGP4"}];
